{
    "links": {
        "self": "http://www.neowsapp.com/rest/v1/neo/3289928?api_key=iIulBulltgU6a56xZRHN4H3l9WmuAYTsLGpBGhQ2"
    },
    "id": "3289928",
    "neo_reference_id": "3289928",
    "name": "(2005 RW3)",
    "designation": "2005 RW3",
    "nasa_jpl_url": "http://ssd.jpl.nasa.gov/sbdb.cgi?sstr=3289928",
    "absolute_magnitude_h": 22.8,
    "estimated_diameter": {
        "kilometers": {
            "estimated_diameter_min": 0.0732073989,
            "estimated_diameter_max": 0.1636967205
        },
        "meters": {
            "estimated_diameter_min": 73.2073989347,
            "estimated_diameter_max": 163.696720474
        },
        "miles": {
            "estimated_diameter_min": 0.0454889547,
            "estimated_diameter_max": 0.1017163949
        },
        "feet": {
            "estimated_diameter_min": 240.181762721,
            "estimated_diameter_max": 537.0627483999
        }
    },
    "is_potentially_hazardous_asteroid": false,
    "close_approach_data": [
        {
            "close_approach_date": "2005-08-29",
            "close_approach_date_full": "2005-Aug-29 19:13",
            "epoch_date_close_approach": 1125342780000,
            "relative_velocity": {
                "kilometers_per_second": "16.3800795137",
                "kilometers_per_hour": "58968.2862493416",
                "miles_per_hour": "36640.599864209"
            },
            "miss_distance": {
                "astronomical": "0.048316112",
                "lunar": "18.794967568",
                "kilometers": "7227987.44188144",
                "miles": "4491263.133746272"
            },
            "orbiting_body": "Earth"
        }
    ],
    "orbital_data": {
        "orbit_id": "11",
        "orbit_determination_date": "2017-04-06 09:10:31",
        "first_observation_date": "2005-09-06",
        "last_observation_date": "2005-09-30",
        "data_arc_in_days": 24,
        "observations_used": 35,
        "orbit_uncertainty": "8",
        "minimum_orbit_intersection": ".0233026",
        "jupiter_tisserand_invariant": "3.439",
        "epoch_osculation": "2453628.5",
        "eccentricity": ".6428942829828228",
        "semi_major_axis": "2.111075246245435",
        "inclination": "2.732577801064749",
        "ascending_node_longitude": "49.39608807112985",
        "orbital_period": "1120.350718332166",
        "perihelion_distance": ".7538770394876898",
        "perihelion_argument": "218.9024154324933",
        "aphelion_distance": "3.46827345300318",
        "perihelion_time": "2453568.331141845023",
        "mean_anomaly": "19.33393586611656",
        "mean_motion": ".3213279503546189",
        "equinox": "J2000",
        "orbit_class": {
            "orbit_class_type": "APO",
            "orbit_class_description": "Near-Earth asteroid orbits which cross the Earth’s orbit similar to that of 1862 Apollo",
            "orbit_class_range": "a (semi-major axis) > 1.0 AU; q (perihelion) < 1.017 AU"
        }
    },
    "is_sentry_object": false
}